IXPE                    
1 49954U 21121A   24044.91667824  .00007920  00000+0  60859-3 0  9993
2 49954   0.2291 234.4389 0009780 235.1910 212.9195 14.96490939  5643
